{"fetched_at":"2026-03-30T06:02:59Z","count":15439,"tles":[{"name":"STARLINK-33935","line1":"1 63791U 25091S   26087.88183455  .00022690  00000+0  83083-3 0  9991","line2":"2 63791  42.9995 304.4675 0000506 244.3318 115.7481 15.27607591 51940","category":"Starlink"}]}